{
    "links": {
        "self": "http://www.neowsapp.com/rest/v1/neo/3276441?api_key=iIulBulltgU6a56xZRHN4H3l9WmuAYTsLGpBGhQ2"
    },
    "id": "3276441",
    "neo_reference_id": "3276441",
    "name": "(2005 GH81)",
    "designation": "2005 GH81",
    "nasa_jpl_url": "http://ssd.jpl.nasa.gov/sbdb.cgi?sstr=3276441",
    "absolute_magnitude_h": 21.6,
    "estimated_diameter": {
        "kilometers": {
            "estimated_diameter_min": 0.1272198785,
            "estimated_diameter_max": 0.2844722965
        },
        "meters": {
            "estimated_diameter_min": 127.2198785394,
            "estimated_diameter_max": 284.4722965033
        },
        "miles": {
            "estimated_diameter_min": 0.0790507431,
            "estimated_diameter_max": 0.1767628354
        },
        "feet": {
            "estimated_diameter_min": 417.3880663071,
            "estimated_diameter_max": 933.3080892598
        }
    },
    "is_potentially_hazardous_asteroid": true,
    "close_approach_data": [
        {
            "close_approach_date": "1901-12-18",
            "close_approach_date_full": "1901-Dec-18 14:49",
            "epoch_date_close_approach": -2147073060000,
            "relative_velocity": {
                "kilometers_per_second": "11.2866422279",
                "kilometers_per_hour": "40631.9120205426",
                "miles_per_hour": "25247.0899996533"
            },
            "miss_distance": {
                "astronomical": "0.1843290664",
                "lunar": "71.7040068296",
                "kilometers": "27575235.712528568",
                "miles": "17134456.9364395184"
            },
            "orbiting_body": "Earth"
        },
        {
            "close_approach_date": "1910-04-27",
            "close_approach_date_full": "1910-Apr-27 02:13",
            "epoch_date_close_approach": -1883425620000,
            "relative_velocity": {
                "kilometers_per_second": "25.6239010102",
                "kilometers_per_hour": "92246.043636801",
                "miles_per_hour": "57318.1041697667"
            },
            "miss_distance": {
                "astronomical": "0.465703448",
                "lunar": "181.158641272",
                "kilometers": "69668243.87245576",
                "miles": "43289839.365819088"
            },
            "orbiting_body": "Earth"
        },
        {
            "close_approach_date": "1996-11-23",
            "close_approach_date_full": "1996-Nov-23 19:00",
            "epoch_date_close_approach": 848775600000,
            "relative_velocity": {
                "kilometers_per_second": "23.3489699862",
                "kilometers_per_hour": "84056.2919503794",
                "miles_per_hour": "52229.3109621677"
            },
            "miss_distance": {
                "astronomical": "0.4315788934",
                "lunar": "167.8841895326",
                "kilometers": "64563283.189597058",
                "miles": "40117763.8885850804"
            },
            "orbiting_body": "Earth"
        },
        {
            "close_approach_date": "2005-04-06",
            "close_approach_date_full": "2005-Apr-06 22:11",
            "epoch_date_close_approach": 1112825460000,
            "relative_velocity": {
                "kilometers_per_second": "15.4791276722",
                "kilometers_per_hour": "55724.8596200071",
                "miles_per_hour": "34625.2606899983"
            },
            "miss_distance": {
                "astronomical": "0.1091849506",
                "lunar": "42.4729457834",
                "kilometers": "16333836.045815222",
                "miles": "10149375.0860931836"
            },
            "orbiting_body": "Earth"
        }
    ],
    "orbital_data": {
        "orbit_id": "12",
        "orbit_determination_date": "2017-04-06 09:11:07",
        "first_observation_date": "2005-04-10",
        "last_observation_date": "2005-05-04",
        "data_arc_in_days": 24,
        "observations_used": 46,
        "orbit_uncertainty": "7",
        "minimum_orbit_intersection": ".0417114",
        "jupiter_tisserand_invariant": "3.679",
        "epoch_osculation": "2459000.5",
        "eccentricity": ".5451056701116055",
        "semi_major_axis": "1.945428500027522",
        "inclination": "11.71572869588443",
        "ascending_node_longitude": "19.61315414189033",
        "orbital_period": "991.108812487297",
        "perihelion_distance": ".8849643938658039",
        "perihelion_argument": "118.5239363006357",
        "aphelion_distance": "3.005892606189239",
        "perihelion_time": "2459378.515705232792",
        "mean_anomaly": "222.6935285316622",
        "mean_motion": ".3632295419677888",
        "equinox": "J2000",
        "orbit_class": {
            "orbit_class_type": "APO",
            "orbit_class_description": "Near-Earth asteroid orbits which cross the Earth’s orbit similar to that of 1862 Apollo",
            "orbit_class_range": "a (semi-major axis) > 1.0 AU; q (perihelion) < 1.017 AU"
        }
    },
    "is_sentry_object": false
}